0 DELTA 1 DEB
1 21269U 75052E   13280.81888962  .00000095  00000-0  31112-3 0  2856
2 21269 099.7891 033.1053 0120100 179.4662 333.0428 13.22717259 82674
0 DELTA 1 DEB
1 21269U 75052E   13282.85416913  .00000103  00000-0  32913-3 0  2866
2 21269 099.7894 035.0121 0120127 174.6964 304.5696 13.22718103 82944
0 DELTA 1 DEB
1 21269U 75052E   13287.30408692  .00000088  00000-0  29629-3 0  2880
2 21269 099.7903 039.1813 0120180 164.2665 254.0585 13.22718908 83535
0 DELTA 1 DEB
1 21269U 75052E   13289.81256975  .00000098  00000-0  31782-3 0  2898
2 21269 099.7905 041.5318 0120189 158.3955 318.8773 13.22719962 83864
0 DELTA 1 DEB
1 21269U 75052E   13292.15799978  .00000134  00000-0  40056-3 0  2901
2 21269 099.7905 043.7297 0120185 152.8975 327.2956 13.22720245 84179
0 DELTA 1 DEB
1 21269U 75052E   13294.19954060  .00000106  00000-0  33556-3 0  2919
2 21269 099.7903 045.6428 0120176 148.1192 328.6515 13.22721239 84443
